NORAD_CAT_ID,OBJECT_NAME,OBJECT_TYPE,EPOCH,MEAN_MOTION,ECCENTRICITY,INCLINATION,RA_OF_ASC_NODE,ARG_OF_PERICENTER,MEAN_ANOMALY,BSTAR,MEAN_MOTION_DOT,MEAN_MOTION_DDOT,TLE_LINE0,TLE_LINE1,TLE_LINE2,SEMIMAJOR_AXIS,PERIOD,APOGEE,PERIGEE,DECAYED
51770.0,STARLINK-3612,PAYLOAD,2022-05-08 14:00:01,15.36261667,0.0001583,53.217,150.7748,48.736,199.5064,-0.021692,-0.00718501,0.0,0 STARLINK-3612,1 51770U 22017C   22128.58334491 -.00718501  00000-0 -21692-1 0  9999,2 51770  53.2170 150.7748 0001583  48.7360 199.5064 15.36261667  3670,6835.313,93.734,458.26,456.096,0.0
51770.0,STARLINK-3612,PAYLOAD,2022-05-08 20:00:01,15.35877558,0.0001833,53.2173,149.6013,38.47,153.0072,-0.021874,-0.00715841,0.0,0 STARLINK-3612,1 51770U 22017C   22128.83334491 -.00715841  00000-0 -21874-1 0  9993,2 51770  53.2173 149.6013 0001833  38.4700 153.0072 15.35877558 12548,6836.4519999999975,93.757,459.57,457.064,0.0
51770.0,STARLINK-3612,PAYLOAD,2022-05-08 22:00:00,15.35749276,0.0001657,53.2173,149.2105,40.7067,251.7721,-0.021929,-0.00714738,0.0,0 STARLINK-3612,1 51770U 22017C   22128.91667824 -.00714738  00000-0 -21929-1 0  9996,2 51770  53.2173 149.2105 0001657  40.7067 251.7721 15.35749276  3678,6836.833000000001,93.765,459.831,457.565,0.0
51770.0,STARLINK-3612,PAYLOAD,2022-05-09 14:00:01,15.34731701,0.0001440999999999,53.2172,146.0909,44.9321,334.2383,-0.022768,-0.00717905,0.0,0 STARLINK-3612,1 51770U 22017C   22129.58335648 -.00717905  00000-0 -22768-1 0  9997,2 51770  53.2172 146.0909 0001441  44.9321 334.2383 15.34731701  3678,6839.855,93.827,462.705,460.734,0.0
51770.0,STARLINK-3612,PAYLOAD,2022-05-09 22:00:00,15.342198800000002,0.0001714,53.2173,144.5302,33.6658,27.8386,-0.023081,-0.00716136,0.0,0 STARLINK-3612,1 51770U 22017C   22129.91667824 -.00716136  00000-0 -23081-1 0  9992,2 51770  53.2173 144.5302 0001714  33.6658  27.8386 15.34219880  3677,6841.376,93.859,464.413,462.068,0.0
51770.0,STARLINK-3612,PAYLOAD,2022-05-10 00:00:00,15.34094294,0.0001863,53.2173,144.1408,38.3859,123.6207,-0.023259,-0.00718594,0.0,0 STARLINK-3612,1 51770U 22017C   22130.00001157 -.00718594  00000-0 -23259-1 0  9992,2 51770  53.2173 144.1408 0001863  38.3859 123.6207 15.34094294 12723,6841.749,93.866,464.889,462.339,0.0
51770.0,STARLINK-3612,PAYLOAD,2022-05-10 14:00:01,15.33200807,0.0001763,53.2172,141.4179,39.8921,104.564,-0.023861,-0.00716665,0.0,0 STARLINK-3612,1 51770U 22017C   22130.58334491 -.00716665  00000-0 -23861-1 0  9991,2 51770  53.2172 141.4179 0001763  39.8921 104.5640 15.33200807  3673,6844.406999999997,93.921,467.478,465.065,0.0
51770.0,STARLINK-3612,PAYLOAD,2022-05-10 18:00:00,15.32945084,0.0001716,53.2169,140.6399,34.6352,310.1766,-0.024044,-0.00716347,0.0,0 STARLINK-3612,1 51770U 22017C   22130.75001157 -.00716347  00000-0 -24044-1 0  9991,2 51770  53.2169 140.6399 0001716  34.6352 310.1766 15.32945084  3657,6845.168000000002,93.937,468.208,465.858,0.0
51770.0,STARLINK-3612,PAYLOAD,2022-05-11 22:00:00,15.31159561,0.0001612,53.2174,135.2025,43.9299,259.0807,-0.025381,-0.00714915,0.0,0 STARLINK-3612,1 51770U 22017C   22131.91667824 -.00714915  00000-0 -25381-1 0  9993,2 51770  53.2174 135.2025 0001612  43.9299 259.0807 15.31159561 13022,6850.488,94.046,473.458,471.249,0.0
51770.0,STARLINK-3612,PAYLOAD,2022-05-12 14:00:01,15.30142295,0.0001936,53.2173,132.1044,28.4047,350.2036,-0.026353,-0.00718809,0.0,0 STARLINK-3612,1 51770U 22017C   22132.58334491 -.00718809  00000-0 -26353-1 0  9994,2 51770  53.2173 132.1044 0001936  28.4047 350.2036 15.30142295  1307,6853.524,94.109,476.716,474.06300000000016,0.0
51770.0,STARLINK-3612,PAYLOAD,2022-05-12 22:00:00,15.29629758,0.0001708,53.2174,130.5548,36.2031,19.2878,-0.026629,-0.00715125,0.0,0 STARLINK-3612,1 51770U 22017C   22132.91667824 -.00715125  00000-0 -26629-1 0  9994,2 51770  53.2174 130.5548 0001708  36.2031  19.2878 15.29629758  1304,6855.055,94.14,478.091,475.749,0.0
51770.0,STARLINK-3612,PAYLOAD,2022-05-13 06:00:00,15.29121955,0.0002019,53.2175,129.01,31.0257,60.7311,-0.027183,-0.00718384,0.0,0 STARLINK-3612,1 51770U 22017C   22133.25001157 -.00718384  00000-0 -27183-1 0  9999,2 51770  53.2175 129.0100 0002019  31.0257  60.7311 15.29121955 13224,6856.573,94.172,479.822,477.05300000000005,0.0
51770.0,STARLINK-3612,PAYLOAD,2022-05-13 14:00:01,15.28610809,0.0001718,53.2172,127.4639,40.9153,86.4973,-0.027514,-0.00724184,0.0,0 STARLINK-3612,1 51770U 22017C   22133.58334491 -.00724184  00000-0 -27514-1 0  9998,2 51770  53.2172 127.4639 0001718  40.9153  86.4973 15.28610809  1304,6858.101,94.203,481.144,478.788,0.0
51770.0,STARLINK-3612,PAYLOAD,2022-05-13 22:00:00,15.28101858,0.0001694,53.2173,125.9182,46.4117,116.0436,-0.028041,-0.00726427,0.0,0 STARLINK-3612,1 51770U 22017C   22133.91667824 -.00726427  00000-0 -28041-1 0  9992,2 51770  53.2173 125.9182 0001694  46.4117 116.0436 15.28101858  1308,6859.624,94.235,482.651,480.327,0.0
51770.0,STARLINK-3612,PAYLOAD,2022-05-14 14:00:01,15.2708199,0.0001708,53.2172,122.8341,46.982,183.7189,-0.02893,-0.00726416,0.0,0 STARLINK-3612,1 51770U 22017C   22134.58334491 -.00726416  00000-0 -28930-1 0  9992,2 51770  53.2172 122.8341 0001708  46.9820 183.7189 15.27081990  1301,6862.678000000001,94.297,485.715,483.371,0.0
51770.0,STARLINK-3612,PAYLOAD,2022-05-14 16:00:00,15.26955344,0.0001531999999999,53.2174,122.4483,46.5968,282.4626,-0.029116,-0.00728122,0.0,0 STARLINK-3612,1 51770U 22017C   22134.66667824 -.00728122  00000-0 -29116-1 0  9993,2 51770  53.2174 122.4483 0001532  46.5968 282.4626 15.26955344 13443,6863.057,94.305,485.974,483.871,0.0
51770.0,STARLINK-3612,PAYLOAD,2022-05-14 22:00:00,15.26570811,0.0001779,53.2174,121.2919,42.2311,221.6749,-0.029287,-0.00724179,0.0,0 STARLINK-3612,1 51770U 22017C   22134.91667824 -.00724179  00000-0 -29287-1 0  9998,2 51770  53.2174 121.2919 0001779  42.2311 221.6749 15.26570811  1307,6864.21,94.329,487.296,484.853,0.0
51770.0,STARLINK-3612,PAYLOAD,2022-05-15 14:00:01,15.25552542,0.0001606,53.2172,118.2151,42.4464,286.0915,-0.030353,-0.0072745,0.0,0 STARLINK-3612,1 51770U 22017C   22135.58335648 -.00727450  00000-0 -30353-1 0  9999,2 51770  53.2172 118.2151 0001606  42.4464 286.0915 15.25552542  1309,6867.264,94.392,490.232,488.026,0.0
51770.0,STARLINK-3612,PAYLOAD,2022-05-15 22:00:00,15.25039494,0.0001654,53.2175,116.677,40.4264,319.4149,-0.030559,-0.0072155,0.0,0 STARLINK-3612,1 51770U 22017C   22135.91667824 -.00721550  00000-0 -30559-1 0  9993,2 51770  53.2175 116.6770 0001654  40.4264 319.4149 15.25039494 13635,6868.804,94.424,491.805,489.533,0.0
51770.0,STARLINK-3612,PAYLOAD,2022-05-16 14:00:01,15.24021459,0.0001628,53.2173,113.6071,41.0019,19.7312,-0.031676,-0.00725124,0.0,0 STARLINK-3612,1 51770U 22017C   22136.58334491 -.00725124  00000-0 -31676-1 0  9990,2 51770  53.2173 113.6071 0001628  41.0019  19.7312 15.24021459  1304,6871.861999999999,94.487,494.846,492.609,0.0
51770.0,STARLINK-3612,PAYLOAD,2022-05-16 22:00:00,15.23510407,0.0001749,53.2175,112.0724,39.1703,51.0908,-0.032043,-0.00722588,0.0,0 STARLINK-3612,1 51770U 22017C   22136.91667824 -.00722588  00000-0 -32043-1 0  9996,2 51770  53.2175 112.0724 0001749  39.1703  51.0908 15.23510407 13786,6873.399,94.519,496.466,494.062,0.0
51770.0,STARLINK-3612,PAYLOAD,2022-05-17 14:00:01,15.22491208,0.0001778,53.2172,109.0097,41.9845,105.5555,-0.033111,-0.00724228,0.0,0 STARLINK-3612,1 51770U 22017C   22137.58335648 -.00724228  00000-0 -33111-1 0  9996,2 51770  53.2172 109.0097 0001778  41.9845 105.5555 15.22491208  1306,6876.465999999999,94.582,499.554,497.109,0.0
51770.0,STARLINK-3612,PAYLOAD,2022-05-17 20:00:01,15.22107387,0.0001706,53.2173,107.8611,38.5743,39.7274,-0.033404,-0.00722479,0.0,0 STARLINK-3612,1 51770U 22017C   22137.83334491 -.00722479  00000-0 -33404-1 0  9990,2 51770  53.2173 107.8611 0001706  38.5743  39.7274 15.22107387 13924,6877.621999999999,94.606,500.66,498.314,0.0
51770.0,STARLINK-3612,PAYLOAD,2022-05-17 22:00:01,15.21981358,0.0001827,53.2175,107.4789,43.1303,132.0985,-0.033583,-0.0072358,0.0,0 STARLINK-3612,1 51770U 22017C   22137.91668981 -.00723580  00000-0 -33583-1 0  9995,2 51770  53.2175 107.4789 0001827  43.1303 132.0985 15.21981358  1308,6878.002,94.614,501.12300000000016,498.61,0.0
51770.0,STARLINK-3612,PAYLOAD,2022-05-18 14:00:01,15.20962399,0.0001655,53.2173,104.4231,50.4675,178.2368,-0.034739,-0.00726102,0.0,0 STARLINK-3612,1 51770U 22017C   22138.58334491 -.00726102  00000-0 -34739-1 0  9992,2 51770  53.2173 104.4231 0001655  50.4675 178.2368 15.20962399  1307,6881.073,94.677,504.077,501.8,0.0
51770.0,STARLINK-3612,PAYLOAD,2022-05-18 20:00:01,15.20579245,0.0001838,53.2173,103.2774,40.7743,117.3759,-0.03509,-0.00725301,0.0,0 STARLINK-3612,1 51770U 22017C   22138.83334491 -.00725301  00000-0 -35090-1 0  9991,2 51770  53.2173 103.2774 0001838  40.7743 117.3759 15.20579245 14077,6882.229,94.701,505.359,502.829,0.0
51770.0,STARLINK-3612,PAYLOAD,2022-05-18 22:00:00,15.20451299,0.000177,53.2175,102.896,44.7473,209.8078,-0.035104,-0.00723024,0.0,0 STARLINK-3612,1 51770U 22017C   22138.91667824 -.00723024  00000-0 -35104-1 0  9995,2 51770  53.2175 102.8960 0001770  44.7473 209.8078 15.20451299  1301,6882.615,94.709,505.699,503.262,0.0
51770.0,STARLINK-3612,PAYLOAD,2022-05-19 14:00:01,15.19432774,0.0001578,53.2174,99.8471,47.2259,257.2548,-0.036374,-0.00726878,0.0,0 STARLINK-3612,1 51770U 22017C   22139.58335648 -.00726878  00000-0 -36374-1 0  9995,2 51770  53.2174  99.8471 0001578  47.2259 257.2548 15.19432774  1302,6885.691,94.772,508.642,506.469,0.0
51770.0,STARLINK-3612,PAYLOAD,2022-05-19 22:00:00,15.18921011,0.000166,53.2177,98.3238,43.536,284.894,-0.036681,-0.00722488,0.0,0 STARLINK-3612,1 51770U 22017C   22139.91667824 -.00722488  00000-0 -36681-1 0  9990,2 51770  53.2177  98.3238 0001660  43.5360 284.8940 15.18921011 14249,6887.236999999999,94.804,510.246,507.959,0.0
